O/OREOS (USA 219)       
1 37224U 10062C   25123.87434788  .00004539  00000+0  46083-3 0  9993
2 37224  71.9712 285.7009 0013691 132.3298 227.9033 14.91266782 55570
ELEKTRO-L 1 (GOMS 2)    
1 37344U 11001A   25123.09571378 -.00000143  00000+0  00000+0 0  9994
2 37344   8.7546  58.5725 0004532  19.5175 161.8626  1.00252188 52371
RESOURCESAT-2           
1 37387U 11015A   25123.88098986  .00000379  00000+0  19319-3 0  9999
2 37387  98.8105 188.0738 0005083 325.6058  34.4790 14.21591417728022
YOUTHSAT                
1 37388U 11015B   25123.93717824  .00000387  00000+0  18128-3 0  9991
2 37388  98.3238 112.6731 0015813 102.8602 285.4783 14.25372473729331
APRIZESAT 6             
1 37793U 11044F   25123.67429981  .00001577  00000+0  23367-3 0  9991
2 37793  98.2643  20.5410 0042933 316.5665  72.4468 14.76012237736727
JUGNU                   
1 37839U 11058B   25123.76082766  .00000611  00000+0  17986-3 0  9991
2 37839  19.9611 275.4701 0018535 235.3884 152.3188 14.13589577701028
SRMSAT                  
1 37841U 11058D   25123.83198039  .00000551  00000+0  15599-3 0  9994
2 37841  19.9733  16.9226 0011708  21.1730  29.5336 14.11423293699916
SUOMI NPP               
1 37849U 11061A   25123.88932598  .00000160  00000+0  96631-4 0  9990
2 37849  98.7559  63.5659 0002493  71.0723 289.0723 14.19528010700377
YAOGAN-12               
1 37875U 11066B   25123.89156041  .00011348  00000+0  47444-3 0  9993
2 37875  97.1693 176.4011 0010343 247.5170 112.4973 15.23707705750257
ZIYUAN 3-1 (ZY 3-1)     
1 38046U 12001A   25123.91529139  .00023859  00000+0  40649-3 0  9999
2 38046  97.1987 188.4513 0005255  81.6984 278.4864 15.51362049740294
BEIDOU-2 M4             
1 38251U 12018B   25122.88687762 -.00000067  00000+0  00000+0 0  9997
2 38251  56.0063 317.9132 0011433 275.6797  84.1955  1.86232061 88650
ARIRANG-3 (KOMPSAT-3)   
1 38338U 12025B   25123.92624962  .00001022  00000+0  21138-3 0  9990
2 38338  98.3035  77.2736 0006049 315.8327  44.2391 14.62452495691556
HORYU-2                 
1 38340U 12025D   25123.84641887  .00005859  00000+0  65390-3 0  9999
2 38340  98.1736 237.4493 0009942  82.6473 277.5871 14.87376857687802
CSSWE                   
1 38761U 12048D   25123.88587839  .00019344  00000+0  67539-3 0  9992
2 38761  64.6655  15.8429 0114743 284.0315  74.8078 15.23541082 53666
CP5                     
1 38763U 12048F   25123.90273417  .00015426  00000+0  66161-3 0  9998
2 38763  64.6567  51.8181 0129015 288.7134  70.0023 15.15621189 54503
METOP-B                 
1 38771U 12049A   25123.86568649  .00000217  00000+0  11882-3 0  9999
2 38771  98.5799 179.1097 0002058 100.8778 259.2631 14.21489448655105
SJ-9A                   
1 38860U 12056A   25123.92416506  .00001953  00000+0  23755-3 0  9997
2 38860  97.6235 107.3711 0026712 160.7956 199.4272 14.84299811638852
COSMOS 2484             
1 39059U 13001C   25123.91325018  .00000044  00000+0  24759-3 0  9990
2 39059  82.4976 116.4007 0025665 203.3657 156.6258 12.42921427557715
SARAL                   
1 39086U 13009A   25123.94527118  .00000209  00000+0  92835-4 0  9990
2 39086  98.5542 310.7694 0003070  70.7371 289.4145 14.32693616637006
AAUSAT 3                
1 39087U 13009B   25123.92893956  .00001220  00000+0  40739-3 0  9994
2 39087  98.3678 312.3527 0011672   7.6874 352.4491 14.39168349638296
STRAND-1                
1 39090U 13009E   25123.48806267  .00000625  00000+0  22608-3 0  9991
2 39090  98.3829 309.1585 0009122  23.4463 336.7137 14.36788424638227
BRITE-AUSTRIA           
1 39091U 13009F   25123.48061500  .00000412  00000+0  15536-3 0  9991
2 39091  98.3885 308.4098 0010776  29.8971 330.2829 14.36290148638231
UNIBRITE                
1 39092U 13009G   25123.45624515  .00000421  00000+0  15900-3 0  9995
2 39092  98.3925 308.3934 0009636  26.9469 333.2216 14.36161790638174
AIST-2 (RS-43)          
1 39133U 13015D   25123.90783519  .00007735  00000+0  35815-3 0  9990
2 39133  64.8698 149.3874 0030472 284.4616  75.3131 15.20377307661564
GAOFEN-1                
1 39150U 13018A   25123.94775234  .00001328  00000+0  19733-3 0  9994
2 39150  97.9508 198.2293 0018737 141.5753 218.6795 14.76533037647851
NEE-01 PEGASO           
1 39151U 13018B   25123.86813983  .00004562  00000+0  47105-3 0  9997
2 39151  98.0669 251.9132 0014507  73.2840 286.9968 14.90604446649660
TURKSAT-3USAT           
1 39152U 13018C   25123.95175619  .00004940  00000+0  48270-3 0  9999
2 39152  97.8068 212.2505 0013276  28.4848 331.7094 14.92762287649969
CUBEBUG-1 (CAPITAN BETO)
1 39153U 13018D   25123.85598647  .00006376  00000+0  61105-3 0  9996
2 39153  98.1136 263.1437 0013534  64.2427 296.0187 14.93447242649976
PROBA-V                 
1 39159U 13021A   25123.97474693  .00000144  00000+0  81433-4 0  9997
2 39159  98.3205 118.8279 0003013 244.5273 115.5595 14.23476336622893
ESTCUBE 1               
1 39161U 13021C   25123.62481561  .00003270  00000+0  44305-3 0  9993
2 39161  97.7821 186.3030 0006950 268.2188  91.8228 14.79583300644466
ARIRANG-5 (KOMPSAT-5)   
1 39227U 13042A   25123.94002559  .00003564  00000+0  25880-3 0  9993
2 39227  97.6201 311.3583 0003790  92.9915 267.1745 15.04512822642327
GONETS-M 5              
1 39249U 13048A   25123.94531196  .00000051  00000+0  29885-3 0  9994
2 39249  82.4825 238.4697 0016241  29.6178 330.5818 12.42863569528047
GONETS-M 7              
1 39251U 13048C   25123.91746942  .00000040  00000+0  21775-3 0  9999
2 39251  82.4889 241.1962 0017082  30.5592 329.6479 12.42895822527993
FENGYUN 3C              
1 39260U 13052A   25123.96501927  .00000200  00000+0  12292-3 0  9993
2 39260  98.4533 112.8227 0015768 119.5179 240.7570 14.15615685600662
CASSIOPE                
1 39265U 13055A   25123.92801029  .00031262 -38899-6  50245-3 0  9990
2 39265  80.9431 191.7655 0396699 331.7714  26.2490 14.96368066605917
APRIZESAT 7             
1 39416U 13066A   25123.85710137  .00002238  00000+0  23468-3 0  9994
2 39416  97.7179  79.9011 0038257 126.2212 234.2552 14.89999558620247
ZACUBE-1 (TSHEPISOSAT)  
1 39417U 13066B   25123.87706089  .00006584  00000+0  57617-3 0  9999
2 39417  97.7766  81.1030 0044738 172.4742 187.7161 14.96284659619421
APRIZESAT 8             
1 39425U 13066K   25123.81487367  .00002055  00000+0  23478-3 0  9994
2 39425  97.7734  73.7421 0046738 190.7107 169.3118 14.86367300618832
CINEMA-3 (KHUSAT-2)     
1 39426U 13066L   25123.74404350  .00003126  00000+0  42360-3 0  9999
2 39426  97.8466  42.0026 0094391  97.4392 263.7555 14.76561738613999
TRITON-1                
1 39427U 13066M   25123.93638268  .00004104  00000+0  52285-3 0  9992
2 39427  97.8378  38.6431 0096221 124.7715 236.2600 14.78819605613548
DELFI-N3XT              
1 39428U 13066N   25123.71317070  .00011412  00000+0  11692-2 0  9990
2 39428  97.8354  41.7925 0087316 121.2064 239.7747 14.87800683613591
GOMX-1                  
1 39430U 13066Q   25123.87252113  .00002958  00000+0  46631-3 0  9993
2 39430  97.6880 344.7839 0131619 310.4162  48.5620 14.67501798609845
BRITE-PL1 (LEM)         
1 39431U 13066R   25123.90773878  .00002032  00000+0  41850-3 0  9995
2 39431  97.7478 261.8637 0192534 203.8837 155.3338 14.50494550604580
ICUBE-1                 
1 39432U 13066S   25123.91741621  .00014425  00000+0  79439-3 0  9991
2 39432  97.5349 104.4491 0019519 321.0484  38.9340 15.13966685622265
HUMSAT-D                
1 39433U 13066T   25123.90980254  .00039999  00000+0  12494-2 0  9998
2 39433  97.5038 119.1832 0008674 235.5439 124.4984 15.33035826623455
VELOX-PII               
1 39438U 13066Y   25123.83302363  .00004800  00000+0  49341-3 0  9999
2 39438  97.8270  72.1615 0054781 256.5940 102.9167 14.89710117616828
FIRST-MOVE              
1 39439U 13066Z   25123.88464610  .00041489  00000+0  15904-2 0  9990
2 39439  97.7429  96.8243 0030196 114.5808 245.8581 15.25958472619317
CUBEBUG-2 (LO-74)       
1 39440U 13066AA  25123.80443169  .00007540  00000+0  76713-3 0  9996
2 39440  97.8473  68.6319 0060789 302.5651  56.9705 14.89663627615966
NEE-02 KRYSAOR          
1 39441U 13066AB  25123.77736127  .00005225  00000+0  60574-3 0  9998
2 39441  97.8533  62.6896 0068399 331.9589  27.7947 14.84190478615428
FUNCUBE-1 (AO-73)       
1 39444U 13066AE  25123.84103266  .00010605  00000+0  80321-3 0  9991
2 39444  97.7782  85.6336 0041995 149.1748 211.1955 15.01760249618070
HINCUBE                 
1 39445U 13066AF  25123.86475400  .00008569  00000+0  66210-3 0  9993
2 39445  97.7544  85.0401 0044150 154.7844 205.5549 15.00991730617984
UWE-3                   
1 39446U 13066AG  25123.80321139  .00006611  00000+0  63121-3 0  9991
2 39446  97.8210  74.9461 0051764 240.0933 119.5139 14.92612813616425
SMDC ONE 2.4            
1 39469U 13072H   25123.90616542  .00011685  00000+0  60243-3 0  9998
2 39469 120.4915 227.1769 0167684 295.1394  63.2363 15.05611520 55946
CP8 (IPEX)              
1 39471U 13072K   25123.91220769  .00007467  00000+0  45225-3 0  9990
2 39471 120.4656 194.2200 0180748 286.4280  71.6989 14.99230990 53684
COSMOS 2488             
1 39483U 13076A   25123.86876925  .00000042  00000+0  23079-3 0  9997
2 39483  82.4849  63.7738 0017920 269.0445  90.8581 12.42861883515046
COSMOS 2489             
1 39484U 13076B   25123.92171119  .00000034  00000+0  17846-3 0  9994
2 39484  82.4883  64.9934 0019681 269.1982  90.6843 12.42862299515107
COSMOS 2490             
1 39485U 13076C   25123.89292115  .00000040  00000+0  21670-3 0  9998
2 39485  82.4833  63.2560 0020046 286.2185  73.6688 12.42860939515031
AIST-1 (RS-41)          
1 39492U 13078C   25123.93625380  .00002932  00000+0  26968-3 0  9994
2 39492  82.4143 306.7914 0016772 203.6284 156.4168 14.94356046614092
KAZEOSAT 1              
1 39731U 14024A   25123.92080307  .00000407  00000+0  13722-3 0  9994
2 39731  98.3600 200.5492 0001203  94.1728 265.9599 14.42032398579574
